{
  "norad_id": 52581,
  "name": "STARLINK-3915",
  "history": [
    {
      "epoch": "2026-04-12T22:05:15.134784Z",
      "apogee_km": 540.736699492576,
      "perigee_km": 538.5935643920993,
      "latitude_deg": -3.505640477690271e-05,
      "longitude_deg": 153.02418515064164,
      "height_km": 540.7650582339777,
      "semi_major_axis_km": 6917.802131942337,
      "eccentricity": 0.0001549,
      "inclination_deg": 53.2172,
      "raan_deg": 325.4558,
      "arg_perigee_deg": 100.9994,
      "mean_anomaly_deg": 259.1172,
      "mean_motion_rev_day": 15.08865603
    },
    {
      "epoch": "2026-04-14T20:11:27.231360Z",
      "apogee_km": 540.5418144926589,
      "perigee_km": 538.9894371434257,
      "latitude_deg": 3.7293999032639715e-06,
      "longitude_deg": 170.9545156842237,
      "height_km": 540.581030054311,
      "semi_major_axis_km": 6917.902625818042,
      "eccentricity": 0.0001122,
      "inclination_deg": 53.2147,
      "raan_deg": 316.8299,
      "arg_perigee_deg": 84.0584,
      "mean_anomaly_deg": 276.0536,
      "mean_motion_rev_day": 15.08832725
    },
    {
      "epoch": "2026-04-15T18:26:52.165248Z",
      "apogee_km": 540.6367422710136,
      "perigee_km": 538.9280161843444,
      "latitude_deg": -1.2550340257368517e-05,
      "longitude_deg": -167.9742453164746,
      "height_km": 540.5559872251524,
      "semi_major_axis_km": 6917.919379227679,
      "eccentricity": 0.0001235,
      "inclination_deg": 53.2172,
      "raan_deg": 312.6691,
      "arg_perigee_deg": 81.7723,
      "mean_anomaly_deg": 278.3409,
      "mean_motion_rev_day": 15.08827244
    },
    {
      "epoch": "2026-04-16T13:31:30.988704Z",
      "apogee_km": 540.6998500101818,
      "perigee_km": 538.9094867064114,
      "latitude_deg": 1.0855982860662366e-05,
      "longitude_deg": -98.48817385530627,
      "height_km": 540.5738241554632,
      "semi_major_axis_km": 6917.941668358296,
      "eccentricity": 0.0001294,
      "inclination_deg": 53.216,
      "raan_deg": 309.1004,
      "arg_perigee_deg": 81.876,
      "mean_anomaly_deg": 278.2379,
      "mean_motion_rev_day": 15.08819952
    },
    {
      "epoch": "2026-04-17T19:43:50.178720Z",
      "apogee_km": 540.4930357051117,
      "perigee_km": 538.9669542460206,
      "latitude_deg": -1.935280961926552e-05,
      "longitude_deg": 161.53825821096885,
      "height_km": 540.5796258636171,
      "semi_major_axis_km": 6917.866994975566,
      "eccentricity": 0.0001103,
      "inclination_deg": 53.2139,
      "raan_deg": 303.4473,
      "arg_perigee_deg": 86.5391,
      "mean_anomaly_deg": 273.5727,
      "mean_motion_rev_day": 15.08844382
    },
    {
      "epoch": "2026-04-19T19:25:23.138112Z",
      "apogee_km": 540.5778854039554,
      "perigee_km": 538.8332055139908,
      "latitude_deg": -1.6872857559326058e-05,
      "longitude_deg": 155.27236752253162,
      "height_km": 540.4807059126088,
      "semi_major_axis_km": 6917.842545458973,
      "eccentricity": 0.0001261,
      "inclination_deg": 53.2168,
      "raan_deg": 294.5274,
      "arg_perigee_deg": 82.0505,
      "mean_anomaly_deg": 278.063,
      "mean_motion_rev_day": 15.08852381
    },
    {
      "epoch": "2026-04-19T19:25:23.138976Z",
      "apogee_km": 540.5779545823816,
      "perigee_km": 538.8331363355665,
      "latitude_deg": -1.779977864132837e-05,
      "longitude_deg": 155.2723632234869,
      "height_km": 540.4806963472647,
      "semi_major_axis_km": 6917.842545458973,
      "eccentricity": 0.00012611,
      "inclination_deg": 53.2168,
      "raan_deg": 294.5274,
      "arg_perigee_deg": 82.0505,
      "mean_anomaly_deg": 278.063,
      "mean_motion_rev_day": 15.08852381
    },
    {
      "epoch": "2026-04-21T20:42:20.101824Z",
      "apogee_km": 540.6611400982729,
      "perigee_km": 538.7891665995776,
      "latitude_deg": -1.1972719655766147e-05,
      "longitude_deg": 124.7947577130552,
      "height_km": 540.6373262654336,
      "semi_major_axis_km": 6917.862153348925,
      "eccentricity": 0.0001353,
      "inclination_deg": 53.2168,
      "raan_deg": 285.3111,
      "arg_perigee_deg": 91.0111,
      "mean_anomaly_deg": 269.1036,
      "mean_motion_rev_day": 15.08845966
    },
    {
      "epoch": "2026-04-22T17:22:21.085824Z",
      "apogee_km": 540.702208987499,
      "perigee_km": 538.7818057750501,
      "latitude_deg": -1.3715711481351412e-05,
      "longitude_deg": 170.07499323219085,
      "height_km": 540.6368143609913,
      "semi_major_axis_km": 6917.879007381274,
      "eccentricity": 0.0001388,
      "inclination_deg": 53.2163,
      "raan_deg": 281.4442,
      "arg_perigee_deg": 89.9555,
      "mean_anomaly_deg": 270.1596,
      "mean_motion_rev_day": 15.08840452
    },
    {
      "epoch": "2026-04-22T17:22:21.086688Z",
      "apogee_km": 540.701863093549,
      "perigee_km": 538.782151669001,
      "latitude_deg": -9.098850176379983e-06,
      "longitude_deg": 170.0749930552059,
      "height_km": 540.6368146294877,
      "semi_major_axis_km": 6917.879007381274,
      "eccentricity": 0.00013875,
      "inclination_deg": 53.2163,
      "raan_deg": 281.4442,
      "arg_perigee_deg": 89.9555,
      "mean_anomaly_deg": 270.1596,
      "mean_motion_rev_day": 15.08840452
    },
    {
      "epoch": "2026-04-24T20:14:41.493984Z",
      "apogee_km": 540.7592999075223,
      "perigee_km": 538.7199098843994,
      "latitude_deg": 5.5682784835782125e-05,
      "longitude_deg": 115.38435503743975,
      "height_km": 540.78295697877,
      "semi_major_axis_km": 6917.876604895961,
      "eccentricity": 0.0001474,
      "inclination_deg": 53.2183,
      "raan_deg": 271.9278,
      "arg_perigee_deg": 98.3283,
      "mean_anomaly_deg": 261.7877,
      "mean_motion_rev_day": 15.08841238
    },
    {
      "epoch": "2026-04-25T20:05:29.169024Z",
      "apogee_km": 540.8663172605729,
      "perigee_km": 538.759109777835,
      "latitude_deg": 4.3155432881952285e-07,
      "longitude_deg": 112.24562367567196,
      "height_km": 541.0185193213865,
      "semi_major_axis_km": 6917.949713519203,
      "eccentricity": 0.0001523,
      "inclination_deg": 53.2178,
      "raan_deg": 267.4671,
      "arg_perigee_deg": 107.1229,
      "mean_anomaly_deg": 252.993,
      "mean_motion_rev_day": 15.0881732
    },
    {
      "epoch": "2026-04-26T16:45:29.127456Z",
      "apogee_km": 540.5354940112775,
      "perigee_km": 538.8954095520103,
      "latitude_deg": 2.3470685625006568e-05,
      "longitude_deg": 157.53326501825077,
      "height_km": 540.563213490592,
      "semi_major_axis_km": 6917.852451781644,
      "eccentricity": 0.00011854,
      "inclination_deg": 53.216,
      "raan_deg": 263.6033,
      "arg_perigee_deg": 86.6416,
      "mean_anomaly_deg": 273.4712,
      "mean_motion_rev_day": 15.0884914
    },
    {
      "epoch": "2026-04-27T16:36:16.884576Z",
      "apogee_km": 540.6994941116,
      "perigee_km": 538.8593283462133,
      "latitude_deg": 1.9526154542636083e-05,
      "longitude_deg": 154.3936297909496,
      "height_km": 540.7694661571988,
      "semi_major_axis_km": 6917.916411228906,
      "eccentricity": 0.000133,
      "inclination_deg": 53.2176,
      "raan_deg": 259.142,
      "arg_perigee_deg": 95.8817,
      "mean_anomaly_deg": 264.2327,
      "mean_motion_rev_day": 15.08828215
    },
    {
      "epoch": "2026-04-28T19:37:50.321856Z",
      "apogee_km": 540.5864172883958,
      "perigee_km": 538.9205892552081,
      "latitude_deg": 2.3211257140224327e-05,
      "longitude_deg": 102.83899484023405,
      "height_km": 540.7676428980633,
      "semi_major_axis_km": 6917.890503271802,
      "eccentricity": 0.0001204,
      "inclination_deg": 53.2161,
      "raan_deg": 254.0866,
      "arg_perigee_deg": 98.1687,
      "mean_anomaly_deg": 261.9442,
      "mean_motion_rev_day": 15.08836691
    }
  ]
}